{
  "type": "FeatureCollection",
  "features": [
    {
      "type": "Feature",
      "properties": {
        "norad_id": 42989,
        "name": "SKYSAT-C9",
        "group": "resource",
        "lat": -70.07515614712518,
        "lon": 153.169498955618,
        "alt_km": 466.402883738142,
        "timestamp": "2025-12-27T17:24:57.051074+00:00",
        "meta_object_name": "SKYSAT-C9",
        "meta_object_id": "2017-068C",
        "meta_epoch": "2025-12-27T08:20:52.313280",
        "meta_mean_motion": 15.36425529,
        "meta_eccentricity": 0.0010171,
        "meta_inclination": 97.419,
        "meta_ra_of_asc_node": 131.7202,
        "meta_arg_of_pericenter": 40.5412,
        "meta_mean_anomaly": 319.6587,
        "meta_ephemeris_type": 0,
        "meta_classification_type": "U",
        "meta_norad_cat_id": 42989,
        "meta_element_set_no": 999,
        "meta_rev_at_epoch": 45632,
        "meta_bstar": 0.00039897,
        "meta_mean_motion_dot": 0.00014127,
        "meta_mean_motion_ddot": 0,
        "tle_line1": "1 42989U 17068C   25361.34782770  .00014127  00000+0  39897-3 0  9992",
        "tle_line2": "2 42989  97.4190 131.7202 0010171  40.5412 319.6587 15.36425529456327"
      },
      "geometry": {
        "type": "Point",
        "coordinates": [
          153.169498955618,
          -70.07515614712518
        ]
      }
    },
    {
      "type": "Feature",
      "properties": {
        "norad_id": 42990,
        "name": "SKYSAT-C8",
        "group": "resource",
        "lat": 82.55792268490298,
        "lon": 44.51462283446217,
        "alt_km": 459.24983253531536,
        "timestamp": "2025-12-27T17:24:57.051084+00:00",
        "meta_object_name": "SKYSAT-C8",
        "meta_object_id": "2017-068D",
        "meta_epoch": "2025-12-27T07:37:42.314304",
        "meta_mean_motion": 15.33249066,
        "meta_eccentricity": 9.68e-05,
        "meta_inclination": 97.4286,
        "meta_ra_of_asc_node": 131.3845,
        "meta_arg_of_pericenter": 251.4246,
        "meta_mean_anomaly": 108.6891,
        "meta_ephemeris_type": 0,
        "meta_classification_type": "U",
        "meta_norad_cat_id": 42990,
        "meta_element_set_no": 999,
        "meta_rev_at_epoch": 45594,
        "meta_bstar": 0.00042375,
        "meta_mean_motion_dot": 0.00013544,
        "meta_mean_motion_ddot": 0,
        "tle_line1": "1 42990U 17068D   25361.31785086  .00013544  00000+0  42375-3 0  9991",
        "tle_line2": "2 42990  97.4286 131.3845 0000968 251.4246 108.6891 15.33249066455943"
      },
      "geometry": {
        "type": "Point",
        "coordinates": [
          44.51462283446217,
          82.55792268490298
        ]
      }
    },
    {
      "type": "Feature",
      "properties": {
        "norad_id": 42991,
        "name": "SKYSAT-C7",
        "group": "resource",
        "lat": -82.11597320002764,
        "lon": -156.7325157661637,
        "alt_km": 475.7646319669984,
        "timestamp": "2025-12-27T17:24:57.051095+00:00",
        "meta_object_name": "SKYSAT-C7",
        "meta_object_id": "2017-068E",
        "meta_epoch": "2025-12-27T08:23:41.213184",
        "meta_mean_motion": 15.32641795,
        "meta_eccentricity": 0.0006679,
        "meta_inclination": 97.4293,
        "meta_ra_of_asc_node": 132.446,
        "meta_arg_of_pericenter": 10.1488,
        "meta_mean_anomaly": 349.9887,
        "meta_ephemeris_type": 0,
        "meta_classification_type": "U",
        "meta_norad_cat_id": 42991,
        "meta_element_set_no": 999,
        "meta_rev_at_epoch": 45601,
        "meta_bstar": 0.00037951,
        "meta_mean_motion_dot": 0.00011897,
        "meta_mean_motion_ddot": 0,
        "tle_line1": "1 42991U 17068E   25361.34978256  .00011897  00000+0  37951-3 0  9991",
        "tle_line2": "2 42991  97.4293 132.4460 0006679  10.1488 349.9887 15.32641795456018"
      },
      "geometry": {
        "type": "Point",
        "coordinates": [
          -156.7325157661637,
          -82.11597320002764
        ]
      }
    },
    {
      "type": "Feature",
      "properties": {
        "norad_id": 42992,
        "name": "SKYSAT-C6",
        "group": "resource",
        "lat": -15.745882179080391,
        "lon": 135.35889641049377,
        "alt_km": 473.56389105028666,
        "timestamp": "2025-12-27T17:24:57.051105+00:00",
        "meta_object_name": "SKYSAT-C6",
        "meta_object_id": "2017-068F",
        "meta_epoch": "2025-12-26T21:06:12.822048",
        "meta_mean_motion": 15.31783145,
        "meta_eccentricity": 0.0004677,
        "meta_inclination": 97.4325,
        "meta_ra_of_asc_node": 132.4006,
        "meta_arg_of_pericenter": 43.8732,
        "meta_mean_anomaly": 316.288,
        "meta_ephemeris_type": 0,
        "meta_classification_type": "U",
        "meta_norad_cat_id": 42992,
        "meta_element_set_no": 999,
        "meta_rev_at_epoch": 45592,
        "meta_bstar": 0.00040064,
        "meta_mean_motion_dot": 0.00012227,
        "meta_mean_motion_ddot": 0,
        "tle_line1": "1 42992U 17068F   25360.87931507  .00012227  00000+0  40064-3 0  9994",
        "tle_line2": "2 42992  97.4325 132.4006 0004677  43.8732 316.2880 15.31783145455926"
      },
      "geometry": {
        "type": "Point",
        "coordinates": [
          135.35889641049377,
          -15.745882179080391
        ]
      }
    },
    {
      "type": "Feature",
      "properties": {
        "norad_id": 43111,
        "name": "CARTOSAT-2F",
        "group": "resource",
        "lat": 36.085692769352136,
        "lon": -115.42326191357333,
        "alt_km": 504.666010121372,
        "timestamp": "2025-12-27T17:24:57.051115+00:00",
        "meta_object_name": "CARTOSAT-2F",
        "meta_object_id": "2018-004A",
        "meta_epoch": "2025-12-27T12:02:40.044768",
        "meta_mean_motion": 15.19276291,
        "meta_eccentricity": 0.0001632,
        "meta_inclination": 97.4297,
        "meta_ra_of_asc_node": 58.899,
        "meta_arg_of_pericenter": 109.3317,
        "meta_mean_anomaly": 250.8094,
        "meta_ephemeris_type": 0,
        "meta_classification_type": "U",
        "meta_norad_cat_id": 43111,
        "meta_element_set_no": 999,
        "meta_rev_at_epoch": 44126,
        "meta_bstar": 0.00047218,
        "meta_mean_motion_dot": 9.898e-05,
        "meta_mean_motion_ddot": 0,
        "tle_line1": "1 43111U 18004A   25361.50185237  .00009898  00000+0  47218-3 0  9999",
        "tle_line2": "2 43111  97.4297  58.8990 0001632 109.3317 250.8094 15.19276291441263"
      },
      "geometry": {
        "type": "Point",
        "coordinates": [
          -115.42326191357333,
          36.085692769352136
        ]
      }
    },
    {
      "type": "Feature",
      "properties": {
        "norad_id": 43259,
        "name": "GAOFEN-1 02",
        "group": "resource",
        "lat": 55.33471953226377,
        "lon": -108.62947338012877,
        "alt_km": 633.8255097161209,
        "timestamp": "2025-12-27T17:24:57.051125+00:00",
        "meta_object_name": "GAOFEN-1 02",
        "meta_object_id": "2018-031A",
        "meta_epoch": "2025-12-27T11:58:39.521856",
        "meta_mean_motion": 14.76446158,
        "meta_eccentricity": 0.0002762,
        "meta_inclination": 98.0783,
        "meta_ra_of_asc_node": 59.292,
        "meta_arg_of_pericenter": 164.9179,
        "meta_mean_anomaly": 195.2114,
        "meta_ephemeris_type": 0,
        "meta_classification_type": "U",
        "meta_norad_cat_id": 43259,
        "meta_element_set_no": 999,
        "meta_rev_at_epoch": 41736,
        "meta_bstar": 0.00016511,
        "meta_mean_motion_dot": 1.097e-05,
        "meta_mean_motion_ddot": 0,
        "tle_line1": "1 43259U 18031A   25361.49906854  .00001097  00000+0  16511-3 0  9991",
        "tle_line2": "2 43259  98.0783  59.2920 0002762 164.9179 195.2114 14.76446158417361"
      },
      "geometry": {
        "type": "Point",
        "coordinates": [
          -108.62947338012877,
          55.33471953226377
        ]
      }
    },
    {
      "type": "Feature",
      "properties": {
        "norad_id": 43260,
        "name": "GAOFEN-1 03",
        "group": "resource",
        "lat": -58.96455050230185,
        "lon": -134.25797547523996,
        "alt_km": 646.5713853778243,
        "timestamp": "2025-12-27T17:24:57.051135+00:00",
        "meta_object_name": "GAOFEN-1 03",
        "meta_object_id": "2018-031B",
        "meta_epoch": "2025-12-27T13:04:46.207200",
        "meta_mean_motion": 14.76429504,
        "meta_eccentricity": 0.0001674,
        "meta_inclination": 98.0778,
        "meta_ra_of_asc_node": 59.2138,
        "meta_arg_of_pericenter": 246.2931,
        "meta_mean_anomaly": 113.8103,
        "meta_ephemeris_type": 0,
        "meta_classification_type": "U",
        "meta_norad_cat_id": 43260,
        "meta_element_set_no": 999,
        "meta_rev_at_epoch": 41736,
        "meta_bstar": 0.00015755,
        "meta_mean_motion_dot": 1.044e-05,
        "meta_mean_motion_ddot": 0,
        "tle_line1": "1 43260U 18031B   25361.54497925  .00001044  00000+0  15755-3 0  9994",
        "tle_line2": "2 43260  98.0778  59.2138 0001674 246.2931 113.8103 14.76429504417369"
      },
      "geometry": {
        "type": "Point",
        "coordinates": [
          -134.25797547523996,
          -58.96455050230185
        ]
      }
    }
  ]
}